[{"OBJECT_NAME":"STARLINK-3577","OBJECT_ID":"2022-022AJ","EPOCH":"2026-03-09T23:25:23.462400","MEAN_MOTION":15.08843477,"ECCENTRICITY":0.00014826,"INCLINATION":53.2178,"RA_OF_ASC_NODE":357.8357,"ARG_OF_PERICENTER":87.3728,"MEAN_ANOMALY":272.7434,"EPHEMERIS_TYPE":0,"CLASSIFICATION_TYPE":"U","NORAD_CAT_ID":51884,"ELEMENT_SET_NO":999,"REV_AT_EPOCH":22337,"BSTAR":0.00013437894,"MEAN_MOTION_DOT":1.852e-5,"MEAN_MOTION_DDOT":0},{"OBJECT_NAME":"CZ-4C R\/B","OBJECT_ID":"2021-026B","EPOCH":"2026-03-09T16:37:41.696544","MEAN_MOTION":15.16445633,"ECCENTRICITY":0.00393855,"INCLINATION":97.7468,"RA_OF_ASC_NODE":117.371,"ARG_OF_PERICENTER":22.5612,"MEAN_ANOMALY":337.7341,"EPHEMERIS_TYPE":0,"CLASSIFICATION_TYPE":"U","NORAD_CAT_ID":48080,"ELEMENT_SET_NO":999,"REV_AT_EPOCH":27175,"BSTAR":0.00026802982,"MEAN_MOTION_DOT":5.244e-5,"MEAN_MOTION_DDOT":0}]
